{
  "type": "FeatureCollection",
  "features": [
    { "type": "Feature", "properties": { "id": 1, "nama": "Temuku Bakery", "kategori": "UMKM LOKAL" }, "geometry": { "type": "Point", "coordinates": [115.0234275, -8.347725227] } },
    { "type": "Feature", "properties": { "id": 2, "nama": "Temuku Pupuan", "kategori": "AGROWISATA" }, "geometry": { "type": "Point", "coordinates": [115.0240581, -8.346817688] } },
    { "type": "Feature", "properties": { "id": 3, "nama": "Kedai Domba", "kategori": "UMKM LOKAL" }, "geometry": { "type": "Point", "coordinates": [115.0294313, -8.341854593] } },
    { "type": "Feature", "properties": { "id": 4, "nama": "Wr. Bakso (Yunita Shop)", "kategori": "KULINER" }, "geometry": { "type": "Point", "coordinates": [115.0305419, -8.341357724] } },
    { "type": "Feature", "properties": { "id": 5, "nama": "Toko BAAS", "kategori": "UMKM LOKAL" }, "geometry": { "type": "Point", "coordinates": [115.0305288, -8.341317439] } },
    { "type": "Feature", "properties": { "id": 6, "nama": "Wr. Muslim Sate Gule", "kategori": "KULINER" }, "geometry": { "type": "Point", "coordinates": [115.0308855, -8.341402762] } },
    { "type": "Feature", "properties": { "id": 7, "nama": "Warung Sari Rasa", "kategori": "KULINER" }, "geometry": { "type": "Point", "coordinates": [115.0322182, -8.339484845] } },
    { "type": "Feature", "properties": { "id": 8, "nama": "Samcam Guling MEN AKEN", "kategori": "KULINER" }, "geometry": { "type": "Point", "coordinates": [115.0322796, -8.339881441] } },
    { "type": "Feature", "properties": { "id": 9, "nama": "Kopi Kulkul Bangsing", "kategori": "UMKM LOKAL" }, "geometry": { "type": "Point", "coordinates": [115.0304399, -8.341656758] } },
    { "type": "Feature", "properties": { "id": 10, "nama": "Wr. Men Arya", "kategori": "KULINER" }, "geometry": { "type": "Point", "coordinates": [115.0293187, -8.345960987] } },
    { "type": "Feature", "properties": { "id": 11, "nama": "Rumah Kopi Pupuan", "kategori": "UMKM LOKAL" }, "geometry": { "type": "Point", "coordinates": [115.0310689, -8.345141555] } },
    { "type": "Feature", "properties": { "id": 12, "nama": "Sari Sedayu", "kategori": "UMKM LOKAL" }, "geometry": { "type": "Point", "coordinates": [115.029139, -8.346595409] } },
    { "type": "Feature", "properties": { "id": 13, "nama": "Kampung Kopi Camp", "kategori": "AGROWISATA" }, "geometry": { "type": "Point", "coordinates": [115.0369989, -8.341836485] } },
    { "type": "Feature", "properties": { "id": 14, "nama": "Warung Dukuh Sari 88", "kategori": "KULINER" }, "geometry": { "type": "Point", "coordinates": [115.0312262, -8.344175225] } },
    { "type": "Feature", "properties": { "id": 15, "nama": "Kopi Bali Mutiara", "kategori": "UMKM LOKAL" }, "geometry": { "type": "Point", "coordinates": [115.029259, -8.346546797] } },
    { "type": "Feature", "properties": { "id": 16, "nama": "Warung Bu Dwik", "kategori": "KULINER" }, "geometry": { "type": "Point", "coordinates": [115.0292347, -8.347886201] } },
    { "type": "Feature", "properties": { "id": 17, "nama": "Jajan Bali Bu Sayu", "kategori": "UMKM LOKAL" }, "geometry": { "type": "Point", "coordinates": [115.0293064, -8.347362497] } },
    { "type": "Feature", "properties": { "id": 18, "nama": "Toko Pandya", "kategori": "UMKM LOKAL" }, "geometry": { "type": "Point", "coordinates": [115.0300008, -8.347519188] } },
    { "type": "Feature", "properties": { "id": 19, "nama": "Warung Makan Bu Ade", "kategori": "KULINER" }, "geometry": { "type": "Point", "coordinates": [115.0329406, -8.347804243] } },
    { "type": "Feature", "properties": { "id": 20, "nama": "Warung Keke", "kategori": "KULINER" }, "geometry": { "type": "Point", "coordinates": [115.0328856, -8.347824773] } },
    { "type": "Feature", "properties": { "id": 21, "nama": "Warung Ketut Sumini", "kategori": "KULINER" }, "geometry": { "type": "Point", "coordinates": [115.0330985, -8.347675364] } },
    { "type": "Feature", "properties": { "id": 22, "nama": "Warung Men Po", "kategori": "KULINER" }, "geometry": { "type": "Point", "coordinates": [115.0364997, -8.347647984] } },
    { "type": "Feature", "properties": { "id": 23, "nama": "Samasaya Garden", "kategori": "AGROWISATA" }, "geometry": { "type": "Point", "coordinates": [115.0392091, -8.344702452] } },
    { "type": "Feature", "properties": { "id": 24, "nama": "Yeh Nu Garden", "kategori": "AGROWISATA" }, "geometry": { "type": "Point", "coordinates": [115.0432101, -8.34396605] } },
    { "type": "Feature", "properties": { "id": 25, "nama": "Warung Buk Abi", "kategori": "KULINER" }, "geometry": { "type": "Point", "coordinates": [115.0328968, -8.348353904] } },
    { "type": "Feature", "properties": { "id": 26, "nama": "Toko Um Komo", "kategori": "UMKM LOKAL" }, "geometry": { "type": "Point", "coordinates": [115.0329671, -8.348111456] } },
    { "type": "Feature", "properties": { "id": 27, "nama": "Warung Men Nopa", "kategori": "KULINER" }, "geometry": { "type": "Point", "coordinates": [115.0328756, -8.348592611] } },
    { "type": "Feature", "properties": { "id": 28, "nama": "Warung Gusde", "kategori": "KULINER" }, "geometry": { "type": "Point", "coordinates": [115.0333129, -8.348897383] } },
    { "type": "Feature", "properties": { "id": 29, "nama": "Warung Putu Dita", "kategori": "KULINER" }, "geometry": { "type": "Point", "coordinates": [115.0334265, -8.347564587] } },
    { "type": "Feature", "properties": { "id": 30, "nama": "Warung Bu Mekel", "kategori": "KULINER" }, "geometry": { "type": "Point", "coordinates": [115.0331756, -8.349011104] } },
    { "type": "Feature", "properties": { "id": 31, "nama": "Bunda Bakso", "kategori": "KULINER" }, "geometry": { "type": "Point", "coordinates": [115.0302924, -8.355053915] } },
    { "type": "Feature", "properties": { "id": 32, "nama": "Toko Kurnia Indah", "kategori": "UMKM LOKAL" }, "geometry": { "type": "Point", "coordinates": [115.0299771, -8.35569495] } },
    { "type": "Feature", "properties": { "id": 33, "nama": "Warung M. Bayu", "kategori": "KULINER" }, "geometry": { "type": "Point", "coordinates": [115.0297836, -8.355899103] } },
    { "type": "Feature", "properties": { "id": 34, "nama": "UD. May Shea CELL", "kategori": "UMKM LOKAL" }, "geometry": { "type": "Point", "coordinates": [115.0288115, -8.357017835] } },
    { "type": "Feature", "properties": { "id": 35, "nama": "Wr. Bakso Mak Leni", "kategori": "KULINER" }, "geometry": { "type": "Point", "coordinates": [115.0293618, -8.356102392] } },
    { "type": "Feature", "properties": { "id": 36, "nama": "Wr. Bubur Bakso Bu Kadek", "kategori": "KULINER" }, "geometry": { "type": "Point", "coordinates": [115.0283477, -8.357448918] } }
  ]
}